#cP2019  1 10 10  0  0.00000000      96 ORBIT IGb14 HLM  IGS
## 2035      0.00000000     1.00000000 58493 0.4166666665114
+    8    D3704D3903D4003D4103D5627D5727D5826D5926    0    0
+             0    0    0    0    0    0    0    0    0    0
+             0    0    0    0    0    0    0    0    0    0
+             0    0    0    0    0    0    0    0    0    0
+             0    0    0    0    0    0    0    0    0    0
++            2    2    2    2    2    2    2    2    0    0
++            0    0    0    0    0    0    0    0    0    0
++            0    0    0    0    0    0    0    0    0    0
++            0    0    0    0    0    0    0    0    0    0
++            0    0    0    0    0    0    0    0    0    0
%c G  cc GPS ccc cccc cccc cccc cccc ccccc ccccc ccccc ccccc
%c cc cc ccc ccc cccc cccc cccc cccc ccccc ccccc ccccc ccccc
%f  1.2500000  1.025000000  0.00000000000  0.000000000000000
%f  0.0000000  0.000000000  0.00000000000  0.000000000000000
%i    0    0    0    0      0      0      0      0         0
%i    0    0    0    0      0      0      0      0         0
/* RAPID ORBIT COMBINATION FROM WEIGHTED AVERAGE OF:        
/* cod emr esa gfz jpl ngs sio usn whu                      
/* REFERENCED TO IGS TIME (IGST) AND TO WEIGHTED MEAN POLE: 
/* PCV:IGS14_2118 OL/AL:FES2004  NONE     Y  ORB:CMB CLK:CMB
*  2019  1 10  9 56 17.00000000
PD3704  -2902.775304   5482.226148   3003.065652     13.697984  8  8  8 100
PD3903  -2927.234327   4868.855639   3900.399920     85.771752  8  8  8 100
PD4003  -3440.013818   4533.785851   3885.729519    -61.198455  8  8  8 100
PD4103  -3914.568219   4144.912224   3870.902752    -52.181291  8  8  8 100
PD5627  -2657.591501   3593.892709   5234.921428    -67.637248  8  8  8 100
PD5727  -3029.472231   3275.519634   5241.835118     64.042158  8  8  8 100
PD5826  -2841.607964   4143.280895   4703.703444     39.573072  8  8  8 100
PD5926  -3267.750230   3803.358434   4714.115724    -26.419023  8  8  8 100
*  2019  1 10  9 56 18.00000000
PD3704  -2907.845682   5482.433145   2997.787040     13.697976  8  8  8 100
PD3903  -2932.999693   4869.003963   3895.890273     85.771743  8  8  8 100
PD4003  -3445.749256   4533.314952   3881.203766    -61.198450  8  8  8 100
PD4103  -3920.207490   4143.830085   3866.360945    -52.181297  8  8  8 100
PD5627  -2661.109168   3587.904608   5237.250748    -67.637245  8  8  8 100
PD5727  -3032.334993   3269.184666   5244.143367     64.042151  8  8  8 100
PD5826  -2844.413447   4137.451906   4707.146653     39.573075  8  8  8 100
PD5926  -3269.920565   3797.253896   4717.540017    -26.419019  8  8  8 100
*  2019  1 10  9 56 19.00000000
PD3704  -2912.912506   5482.634236   2992.504778     13.697969  8  8  8 100
PD3903  -2938.761481   4869.147223   3891.375880     85.771734  8  8  8 100
PD4003  -3451.480585   4532.839392   3876.673286    -61.198446  8  8  8 100
PD4103  -3925.842165   4142.743744   3861.814429    -52.181303  8  8  8 100
PD5627  -2664.624470   3581.912655   5239.573667    -67.637242  8  8  8 100
PD5727  -3035.194989   3262.846137   5246.445207     64.042144  8  8  8 100
PD5826  -2847.216317   4131.618289   4710.584106     39.573079  8  8  8 100
PD5926  -3272.087809   3791.145051   4720.958541    -26.419014  8  8  8 100
*  2019  1 10  9 56 20.00000000
PD3704  -2917.975769   5482.829419   2987.218872     13.697961  8  8  8 100
PD3903  -2944.519684   4869.285418   3886.856747     85.771725  8  8  8 100
PD4003  -3457.207798   4532.359170   3872.138085    -61.198441  8  8  8 100
PD4103  -3931.472237   4141.653200   3857.263209    -52.181309  8  8  8 100
PD5627  -2668.137405   3575.916855   5241.890184    -67.637238  8  8  8 100
PD5727  -3038.052216   3256.504055   5248.740636     64.042137  8  8  8 100
PD5826  -2850.016572   4125.780051   4714.015799     39.573082  8  8  8 100
PD5926  -3274.251961   3785.031907   4724.371293    -26.419010  8  8  8 100
*  2019  1 10  9 56 21.00000000
PD3704  -2923.035467   5483.018694   2981.929329     13.697954  8  8  8 100
PD3903  -2950.274296   4869.418547   3882.332879     85.771716  8  8  8 100
PD4003  -3462.930888   4531.874286   3867.598166    -61.198436  8  8  8 100
PD4103  -3937.097702   4140.558454   3852.707291    -52.181315  8  8  8 100
PD5627  -2671.647968   3569.917217   5244.200294    -67.637235  8  8  8 100
PD5727  -3040.906673   3250.158428   5251.029650     64.042130  8  8  8 100
PD5826  -2852.814209   4119.937198   4717.441728     39.573086  8  8  8 100
PD5926  -3276.413019   3778.914470   4727.778268    -26.419005  8  8  8 100
*  2019  1 10  9 56 22.00000000
PD3704  -2928.091594   5483.202059   2976.636155     13.697946  8  8  8 100
PD3903  -2956.025312   4869.546610   3877.804283     85.771707  8  8  8 100
PD4003  -3468.649850   4531.384741   3863.053537    -61.198432  8  8  8 100
PD4103  -3942.718551   4139.459507   3848.146680    -52.181321  8  8  8 100
PD5627  -2675.156155   3563.913746   5246.503996    -67.637232  8  8  8 100
PD5727  -3043.758355   3243.809262   5253.312248     64.042123  8  8  8 100
PD5826  -2855.609226   4114.089737   4720.861889     39.573090  8  8  8 100
PD5926  -3278.570980   3772.792748   4731.179463    -26.419000  8  8  8 100
*  2019  1 10  9 56 23.00000000
PD3704  -2933.144146   5483.379514   2971.339357     13.697939  8  8  8 100
PD3903  -2961.772724   4869.669606   3873.270963     85.771698  8  8  8 100
PD4003  -3474.364678   4530.890534   3858.504203    -61.198427  8  8  8 100
PD4103  -3948.334780   4138.356359   3843.581382    -52.181327  8  8  8 100
PD5627  -2678.661964   3557.906451   5248.801286    -67.637229  8  8  8 100
PD5727  -3046.607260   3237.456565   5255.588426     64.042116  8  8  8 100
PD5826  -2858.401619   4108.237676   4724.276277     39.573093  8  8  8 100
PD5926  -3280.725844   3766.666748   4734.574873    -26.418996  8  8  8 100
*  2019  1 10  9 56 24.00000000
PD3704  -2938.193116   5483.551058   2966.038940     13.697931  8  8  8 100
PD3903  -2967.516528   4869.787535   3868.732926     85.771689  8  8  8 100
PD4003  -3480.075364   4530.391666   3853.950169    -61.198422  8  8  8 100
PD4103  -3953.946382   4137.249012   3839.011402    -52.181333  8  8  8 100
PD5627  -2682.165389   3551.895338   5251.092161    -67.637225  8  8  8 100
PD5727  -3049.453384   3231.100344   5257.858181     64.042109  8  8  8 100
PD5826  -2861.191386   4102.381019   4727.684890     39.573097  8  8  8 100
PD5926  -3282.877607   3760.536476   4737.964494    -26.418991  8  8  8 100
*  2019  1 10  9 56 25.00000000
PD3704  -2943.238499   5483.716691   2960.734913     13.697924  8  8  8 100
PD3903  -2973.256715   4869.900395   3864.190176     85.771680  8  8  8 100
PD4003  -3485.781903   4529.888137   3849.391440    -61.198418  8  8  8 100
PD4103  -3959.553351   4136.137465   3834.436746    -52.181339  8  8  8 100
PD5627  -2685.666428   3545.880414   5253.376620    -67.637222  8  8  8 100
PD5727  -3052.296726   3224.740606   5260.121511     64.042102  8  8  8 100
PD5826  -2863.978525   4096.519776   4731.087721     39.573100  8  8  8 100
PD5926  -3285.026268   3754.401939   4741.348321    -26.418987  8  8  8 100
*  2019  1 10  9 56 26.00000000
PD3704  -2948.280291   5483.876411   2955.427280     13.697916  8  8  8 100
PD3903  -2978.993281   4870.008186   3859.642720     85.771671  8  8  8 100
PD4003  -3491.484289   4529.379945   3844.828023    -61.198413  8  8  8 100
PD4103  -3965.155680   4135.021720   3829.857420    -52.181345  8  8  8 100
PD5627  -2689.165077   3539.861686   5255.654659    -67.637219  8  8  8 100
PD5727  -3055.137282   3218.377360   5262.378412     64.042095  8  8  8 100
PD5826  -2866.763032   4090.653951   4734.484768     39.573104  8  8  8 100
PD5926  -3287.171825   3748.263146   4744.726352    -26.418982  8  8  8 100
*  2019  1 10  9 56 27.00000000
PD3704  -2953.318486   5484.030219   2950.116050     13.697909  8  8  8 100
PD3903  -2984.726218   4870.110908   3855.090563     85.771662  8  8  8 100
PD4003  -3497.182515   4528.867093   3840.259923    -61.198408  8  8  8 100
PD4103  -3970.753364   4133.901777   3825.273430    -52.181351  8  8  8 100
PD5627  -2692.661331   3533.839161   5257.926275    -67.637216  8  8  8 100
PD5727  -3057.975048   3212.010611   5264.628883     64.042088  8  8  8 100
PD5826  -2869.544905   4084.783553   4737.876026     39.573108  8  8  8 100
PD5926  -3289.314275   3742.120101   4748.098581    -26.418978  8  8  8 100
*  2019  1 10  9 56 28.00000000
PD3704  -2958.353078   5484.178113   2944.801227     13.697901  8  8  8 100
PD3903  -2990.455522   4870.208559   3850.533709     85.771653  8  8  8 100
PD4003  -3502.876575   4528.349579   3835.687145    -61.198403  8  8  8 100
PD4103  -3976.346397   4132.777637   3820.684779    -52.181357  8  8  8 100
PD5627  -2696.155189   3527.812846   5260.191465    -67.637213  8  8  8 100
PD5727  -3060.810023   3205.640368   5266.872920     64.042081  8  8  8 100
PD5826  -2872.324141   4078.908587   4741.261491     39.573111  8  8  8 100
PD5926  -3291.453618   3735.972814   4751.465004    -26.418973  8  8  8 100
*  2019  1 10  9 56 29.00000000
PD3704  -2963.384064   5484.320093   2939.482818     13.697894  8  8  8 100
PD3903  -2996.181185   4870.301140   3845.972166     85.771644  8  8  8 100
PD4003  -3508.566463   4527.827403   3831.109696    -61.198399  8  8  8 100
PD4103  -3981.934771   4131.649300   3816.091476    -52.181363  8  8  8 100
PD5627  -2699.646644   3521.782748   5262.450228    -67.637209  8  8  8 100
PD5727  -3063.642203   3199.266638   5269.110522     64.042074  8  8  8 100
PD5826  -2875.100737   4073.029061   4744.641159     39.573115  8  8  8 100
PD5926  -3293.589851   3729.821290   4754.825619    -26.418968  8  8  8 100
EOF
